[{"OBJECT_NAME":"STARLINK-4061","OBJECT_ID":"2022-086F","EPOCH":"2026-03-09T14:03:44.129952","MEAN_MOTION":15.08827445,"ECCENTRICITY":0.0001224,"INCLINATION":53.2169,"RA_OF_ASC_NODE":199.7689,"ARG_OF_PERICENTER":69.4442,"MEAN_ANOMALY":290.6682,"EPHEMERIS_TYPE":0,"CLASSIFICATION_TYPE":"U","NORAD_CAT_ID":53247,"ELEMENT_SET_NO":999,"REV_AT_EPOCH":20129,"BSTAR":-3.3711e-5,"MEAN_MOTION_DOT":-8.24e-6,"MEAN_MOTION_DDOT":0},{"OBJECT_NAME":"IRIDIUM 33 DEB","OBJECT_ID":"1997-051QE","EPOCH":"2026-03-07T09:35:18.798432","MEAN_MOTION":15.07266806,"ECCENTRICITY":0.0013423,"INCLINATION":86.3519,"RA_OF_ASC_NODE":312.8742,"ARG_OF_PERICENTER":171.2899,"MEAN_ANOMALY":188.8573,"EPHEMERIS_TYPE":0,"CLASSIFICATION_TYPE":"U","NORAD_CAT_ID":35484,"ELEMENT_SET_NO":999,"REV_AT_EPOCH":63287,"BSTAR":0.0040001,"MEAN_MOTION_DOT":0.00060878,"MEAN_MOTION_DDOT":0}]
